ONEWEB-0603             
1 54667U 22166AB  24038.56311228  .00000033  00000+0  47769-4 0  9992
2 54667  87.9207  55.2818 0001794 107.6313 252.5017 13.21829001 57780
ONEWEB-0604             
1 54668U 22166AC  24038.55051606  .00000040  00000+0  66350-4 0  9998
2 54668  87.9202  55.2734 0002262  95.9156 264.2236 13.21825846 57740
ONEWEB-0605             
1 54669U 22166AD  24038.54419761  .00000092  00000+0  19143-3 0  9992
2 54669  87.9200  55.3086 0001502 112.6757 247.4536 13.21826511 57814
ONEWEB-0606             
1 54670U 22166AE  24038.56627171  .00000009  00000+0 -98205-5 0  9999
2 54670  87.9206  55.2871 0001930  85.6325 274.5029 13.21827299 57876
ONEWEB-0607             
1 54671U 22166AF  24038.60885206  .00000011  00000+0 -50748-5 0  9993
2 54671  87.9205  55.2605 0001842 103.4040 256.7299 13.21827887 57858
ONEWEB-0608             
1 54672U 22166AG  24038.53945699  .00000114  00000+0  24350-3 0  9990
2 54672  87.9208  55.2883 0001615 114.4396 245.6907 13.21828041 57850
ONEWEB-0610             
1 54673U 22166AH  24038.59623213  .00000087  00000+0  17974-3 0  9995
2 54673  87.9203  55.2781 0001643 107.5604 252.5709 13.21823598 57768
ONEWEB-0611             
1 54674U 22166AJ  24038.58992692  .00000061  00000+0  11546-3 0  9996
2 54674  87.9202  55.2795 0002221  83.8599 276.2788 13.21827647 57753
